QIANFAN-97              
1 66039U 25233G   25335.50929266  .00000340  00000+0  22567-3 0  9997
2 66039  88.9964  63.3771 0017785  77.9009 282.4161 13.99011410  6411
QIANFAN-98              
1 66040U 25233H   25335.51691049  .00000116  00000+0  57535-4 0  9990
2 66040  88.9932  63.3359 0016586  74.2073 286.0938 14.09961967  6436
QIANFAN-99              
1 66041U 25233J   25335.50767889  .00000322  00000+0  21337-3 0  9995
2 66041  88.9965  63.3769 0017739  74.2406 286.0727 13.98886396  6412
QIANFAN-100             
1 66042U 25233K   25335.52267492  .00000450  00000+0  25734-3 0  9990
2 66042  88.9968  63.3424 0017601  78.5625 281.7534 14.07783812  6432
QIANFAN-101             
1 66043U 25233L   25335.51430428  .00000361  00000+0  14298-3 0  9995
2 66043  88.9967  63.3224 0016852  75.1765 285.1294 14.26665091  6446
QIANFAN-102             
1 66044U 25233M   25335.19429948  .00000348  00000+0  22144-3 0  9999
2 66044  88.9942  63.4003 0016499  75.6551 284.6459 14.01418627  6374
QIANFAN-103             
1 66045U 25233N   25335.51718411  .00000277  00000+0  19031-3 0  9994
2 66045  88.9964  63.3779 0017661  74.8876 285.4254 13.96561534  6417
QIANFAN-104             
1 66046U 25233P   25335.47939007  .00000410  00000+0  26294-3 0  9994
2 66046  88.9964  63.3724 0016804  80.8929 279.4151 14.01384157  6412
